STARLINK-35492          
1 65926U 25225S   25304.83336806 -.02026286  00000+0 -32966-1 0  9999
2 65926  53.1595  46.6962 0000817  64.1172 329.7501 15.55214991  4696
STARLINK-35494          
1 65927U 25225T   25304.83336806 -.02032090  00000+0 -33066-1 0  9992
2 65927  53.1599  46.6871 0000860  63.9220 333.7764 15.55219130  4695
STARLINK-35493          
1 65928U 25225U   25304.83336806 -.02035680  00000+0 -33130-1 0  9993
2 65928  53.1600  46.6789 0000880  66.2822 335.2504 15.55220558  4643
STARLINK-35175          
1 65929U 25225V   25304.83336806 -.02028836  00000+0 -33010-1 0  9996
2 65929  53.1596  46.6758 0000867  64.9643 338.4869 15.55216598  4698
STARLINK-35513          
1 65930U 25225W   25304.83336806 -.02033749  00000+0 -33094-1 0  9999
2 65930  53.1600  46.6829 0001049  45.8724 353.7423 15.55219492  4698
STARLINK-35526          
1 65931U 25225X   25304.83336806 -.02035162  00000+0 -33121-1 0  9992
2 65931  53.1596  46.6708 0000917  65.2510 340.1169 15.55219417  4695
STARLINK-35436          
1 65932U 25225Y   25304.83336806 -.02028013  00000+0 -32996-1 0  9999
2 65932  53.1597  46.6677 0000861  62.3858 344.8993 15.55215909  4691
STARLINK-35192          
1 65933U 25225Z   25304.83336806 -.02045278  00000+0 -33299-1 0  9999
2 65933  53.1598  46.6551 0001002  49.4436   3.5900 15.55223715  4691
STARLINK-33921          
1 65934U 25225AA  25304.83336806 -.02041664  00000+0 -33235-1 0  9995
2 65934  53.1596  46.6634 0000888  64.1833 345.0169 15.55223014  4680
STARLINK-35155          
1 65935U 25225AB  25304.83336806 -.02045676  00000+0 -33304-1 0  9990
2 65935  53.1596  46.6592 0001020  42.9029   8.2108 15.55225426  4684
STARLINK-35161          
1 65936U 25225AC  25304.83336806 -.02045867  00000+0 -33308-1 0  9997
2 65936  53.1599  46.6516 0001052  42.8645  12.0840 15.55224923  4690
STARLINK-35473          
1 65937U 25225AD  25304.83336806 -.02044346  00000+0 -33282-1 0  9990
2 65937  53.1600  46.6481 0001004  48.8171   8.0499 15.55223689  4695
